{
  "type": "FeatureCollection",
  "features": [
    {
      "type": "Feature",
      "properties": {
        "norad_id": 54259,
        "name": "EUTELSAT 10B",
        "group": "eutelsat",
        "lat": -0.02221820207882448,
        "lon": 50.6266417373819,
        "alt_km": 35789.19432288151,
        "timestamp": "2025-12-08T21:31:04.346757+00:00",
        "meta_object_name": "EUTELSAT 10B",
        "meta_object_id": "2022-157A",
        "meta_epoch": "2025-12-08T13:39:06.969888",
        "meta_mean_motion": 1.00268518,
        "meta_eccentricity": 8.808e-05,
        "meta_inclination": 0.0623,
        "meta_ra_of_asc_node": 100.1537,
        "meta_arg_of_pericenter": 77.3125,
        "meta_mean_anomaly": 114.8642,
        "meta_ephemeris_type": 0,
        "meta_classification_type": "U",
        "meta_norad_cat_id": 54259,
        "meta_element_set_no": 999,
        "meta_rev_at_epoch": 1111,
        "meta_bstar": 0,
        "meta_mean_motion_dot": 7e-07,
        "meta_mean_motion_ddot": 0,
        "tle_line1": "1 54259U 22157A   25342.56883067  .00000070  00000+0  00000+0 0  9996",
        "tle_line2": "2 54259   0.0623 100.1537 0000880  77.3125 114.8642  1.00268518 11117"
      },
      "geometry": {
        "type": "Point",
        "coordinates": [
          50.6266417373819,
          -0.02221820207882448
        ]
      }
    },
    {
      "type": "Feature",
      "properties": {
        "norad_id": 59346,
        "name": "EUTELSAT 36D",
        "group": "eutelsat",
        "lat": 0.037840549370826454,
        "lon": 76.52950406390849,
        "alt_km": 35788.058707545744,
        "timestamp": "2025-12-08T21:31:04.346768+00:00",
        "meta_object_name": "EUTELSAT 36D",
        "meta_object_id": "2024-059A",
        "meta_epoch": "2025-12-08T13:46:36.253344",
        "meta_mean_motion": 1.00268699,
        "meta_eccentricity": 3.58e-05,
        "meta_inclination": 0.0187,
        "meta_ra_of_asc_node": 325.0021,
        "meta_arg_of_pericenter": 331.7781,
        "meta_mean_anomaly": 23.3194,
        "meta_ephemeris_type": 0,
        "meta_classification_type": "U",
        "meta_norad_cat_id": 59346,
        "meta_element_set_no": 999,
        "meta_rev_at_epoch": 623,
        "meta_bstar": 0,
        "meta_mean_motion_dot": 1.58e-06,
        "meta_mean_motion_ddot": 0,
        "tle_line1": "1 59346U 24059A   25342.57403071  .00000158  00000+0  00000+0 0  9992",
        "tle_line2": "2 59346   0.0187 325.0021 0000358 331.7781  23.3194  1.00268699  6238"
      },
      "geometry": {
        "type": "Point",
        "coordinates": [
          76.52950406390849,
          0.037840549370826454
        ]
      }
    }
  ]
}